start=new Date('2022-05-19T00:00:00.000Z').valueOf();
sats=[{"ELEMENT_SET_NO":"999","ARG_OF_PERICENTER":"54.2689","INCLINATION":"53.0559","TIME_SYSTEM":"UTC","MEAN_MOTION":"15.06406844","SEMIMAJOR_AXIS":"6925.328","OBJECT_NAME":"STARLINK-1872","BSTAR":"0.00028959000000","MEAN_MOTION_DDOT":"0.0000000000000","NORAD_CAT_ID":"46742","RCS_SIZE":"LARGE","ECCENTRICITY":"0.00016990","MEAN_ANOMALY":"305.8458","CENTER_NAME":"EARTH","PERIOD":"95.592","CLASSIFICATION_TYPE":"U","COUNTRY_CODE":"US","TLE_LINE1":"1 46742U 20074D   22138.87518007  .00004035  00000-0  28959-3 0  9996","EPOCH":"2022-05-18T21:00:15.558048","SITE":"AFETR","APOAPSIS":"548.369","DECAY_DATE":null,"PERIAPSIS":"546.016","TLE_LINE2":"2 46742  53.0559  85.2278 0001699  54.2689 305.8458 15.06406844 87043","MEAN_ELEMENT_THEORY":"SGP4","OBJECT_TYPE":"PAYLOAD","RA_OF_ASC_NODE":"85.2278","GP_ID":"203904029","REV_AT_EPOCH":"8704","LAUNCH_DATE":"2020-10-24","OBJECT_ID":"2020-074D","FILE":"3452356","EPHEMERIS_TYPE":"0","REF_FRAME":"TEME","MEAN_MOTION_DOT":"0.00004035"},{"TLE_LINE2":"2 46743  53.0547  85.4120 0001533  68.1247 291.9905 15.06411866 87042","MEAN_ELEMENT_THEORY":"SGP4","OBJECT_TYPE":"PAYLOAD","SITE":"AFETR","TLE_LINE1":"1 46743U 20074E   22138.83094957  .00006476  00000-0  45309-3 0  9995","EPOCH":"2022-05-18T19:56:34.042848","DECAY_DATE":null,"PERIAPSIS":"546.116","APOAPSIS":"548.239","MEAN_MOTION_DOT":"0.00006476","REF_FRAME":"TEME","EPHEMERIS_TYPE":"0","FILE":"3452356","RA_OF_ASC_NODE":"85.4120","GP_ID":"203904279","REV_AT_EPOCH":"8704","OBJECT_ID":"2020-074E","LAUNCH_DATE":"2020-10-24","OBJECT_NAME":"STARLINK-1892","MEAN_MOTION_DDOT":"0.0000000000000","BSTAR":"0.00045309000000","ARG_OF_PERICENTER":"68.1247","ELEMENT_SET_NO":"999","INCLINATION":"53.0547","TIME_SYSTEM":"UTC","MEAN_MOTION":"15.06411866","SEMIMAJOR_AXIS":"6925.312","ECCENTRICITY":"0.00015330","MEAN_ANOMALY":"291.9905","CLASSIFICATION_TYPE":"U","COUNTRY_CODE":"US","PERIOD":"95.591","CENTER_NAME":"EARTH","NORAD_CAT_ID":"46743","RCS_SIZE":"LARGE"},{"RA_OF_ASC_NODE":"86.5360","GP_ID":"203878315","REV_AT_EPOCH":"8700","LAUNCH_DATE":"2020-10-24","OBJECT_ID":"2020-074F","FILE":"3452190","EPHEMERIS_TYPE":"0","MEAN_MOTION_DOT":"0.00003442","REF_FRAME":"TEME","EPOCH":"2022-05-18T14:00:56.691936","TLE_LINE1":"1 46744U 20074F   22138.58398949  .00003442  00000-0  24978-3 0  9995","SITE":"AFETR","APOAPSIS":"548.678","DECAY_DATE":null,"PERIAPSIS":"545.678","TLE_LINE2":"2 46744  53.0563  86.5360 0002166  47.2764 312.8407 15.06411456 87005","MEAN_ELEMENT_THEORY":"SGP4","OBJECT_TYPE":"PAYLOAD","NORAD_CAT_ID":"46744","RCS_SIZE":"LARGE","ECCENTRICITY":"0.00021660","MEAN_ANOMALY":"312.8407","PERIOD":"95.591","CENTER_NAME":"EARTH","CLASSIFICATION_TYPE":"U","COUNTRY_CODE":"US","INCLINATION":"53.0563","ELEMENT_SET_NO":"999","ARG_OF_PERICENTER":"47.2764","TIME_SYSTEM":"UTC","MEAN_MOTION":"15.06411456","SEMIMAJOR_AXIS":"6925.313","OBJECT_NAME":"STARLINK-1894","BSTAR":"0.00024978000000","MEAN_MOTION_DDOT":"0.0000000000000"},{"TLE_LINE1":"1 46745U 20074G   22138.19923427  .00000152  00000-0  12987-4 0  9991","EPOCH":"2022-05-18T04:46:53.840928","SITE":"AFETR","APOAPSIS":"441.904","PERIAPSIS":"437.702","DECAY_DATE":null,"MEAN_ELEMENT_THEORY":"SGP4","TLE_LINE2":"2 46745  53.0559  41.6440 0003081 297.5040  62.5652 15.42137857 87603","OBJECT_TYPE":"PAYLOAD","REV_AT_EPOCH":"8760","GP_ID":"203871857","RA_OF_ASC_NODE":"41.6440","LAUNCH_DATE":"2020-10-24","OBJECT_ID":"2020-074G","EPHEMERIS_TYPE":"0","FILE":"3451871","REF_FRAME":"TEME","MEAN_MOTION_DOT":"0.00000152","TIME_SYSTEM":"UTC","ARG_OF_PERICENTER":"297.5040","ELEMENT_SET_NO":"999","INCLINATION":"53.0559","SEMIMAJOR_AXIS":"6817.938","MEAN_MOTION":"15.42137857","OBJECT_NAME":"STARLINK-1898","BSTAR":"0.00001298700000","MEAN_MOTION_DDOT":"0.0000000000000","RCS_SIZE":"LARGE","NORAD_CAT_ID":"46745","MEAN_ANOMALY":"62.5652","ECCENTRICITY":"0.00030810","CENTER_NAME":"EARTH","PERIOD":"93.377","COUNTRY_CODE":"US","CLASSIFICATION_TYPE":"U"},{"BSTAR":"0.00006765700000","MEAN_MOTION_DDOT":"0.0000000000000","OBJECT_NAME":"STARLINK-1905","MEAN_MOTION":"15.06402185","SEMIMAJOR_AXIS":"6925.342","INCLINATION":"53.0564","ELEMENT_SET_NO":"999","ARG_OF_PERICENTER":"45.2294","TIME_SYSTEM":"UTC","CENTER_NAME":"EARTH","PERIOD":"95.592","CLASSIFICATION_TYPE":"U","COUNTRY_CODE":"US","ECCENTRICITY":"0.00020110","MEAN_ANOMALY":"314.8858","NORAD_CAT_ID":"46746","RCS_SIZE":"LARGE","OBJECT_TYPE":"PAYLOAD","TLE_LINE2":"2 46746  53.0564  87.6646 0002011  45.2294 314.8858 15.06402185 86967","MEAN_ELEMENT_THEORY":"SGP4","APOAPSIS":"548.600","DECAY_DATE":null,"PERIAPSIS":"545.814","EPOCH":"2022-05-18T08:00:01.328544","TLE_LINE1":"1 46746U 20074H   22138.33334871  .00000726  00000-0  67657-4 0  9998","SITE":"AFETR","FILE":"3451871","EPHEMERIS_TYPE":"0","MEAN_MOTION_DOT":"0.00000726","REF_FRAME":"TEME","LAUNCH_DATE":"2020-10-24","OBJECT_ID":"2020-074H","RA_OF_ASC_NODE":"87.6646","GP_ID":"203872607","REV_AT_EPOCH":"8696"},{"PERIOD":"95.593","CENTER_NAME":"EARTH","COUNTRY_CODE":"US","CLASSIFICATION_TYPE":"U","MEAN_ANOMALY":"310.7537","ECCENTRICITY":"0.00018350","RCS_SIZE":"LARGE","NORAD_CAT_ID":"46747","BSTAR":"0.00003078600000","MEAN_MOTION_DDOT":"0.0000000000000","OBJECT_NAME":"STARLINK-1908","SEMIMAJOR_AXIS":"6925.373","MEAN_MOTION":"15.06391899","TIME_SYSTEM":"UTC","ARG_OF_PERICENTER":"49.3611","ELEMENT_SET_NO":"999","INCLINATION":"53.0577","EPHEMERIS_TYPE":"0","FILE":"3452172","MEAN_MOTION_DOT":"0.00000177","REF_FRAME":"TEME","LAUNCH_DATE":"2020-10-24","OBJECT_ID":"2020-074J","REV_AT_EPOCH":"8706","GP_ID":"203879100","RA_OF_ASC_NODE":"85.3650","OBJECT_TYPE":"PAYLOAD","TLE_LINE2":"2 46747  53.0577  85.3650 0001835  49.3611 310.7537 15.06391899 87063","MEAN_ELEMENT_THEORY":"SGP4","APOAPSIS":"548.509","DECAY_DATE":null,"PERIAPSIS":"545.968","TLE_LINE1":"1 46747U 20074J   22138.84570019  .00000177  00000-0  30786-4 0  9994","EPOCH":"2022-05-18T20:17:48.496416","SITE":"AFETR"},{"ECCENTRICITY":"0.00017710","MEAN_ANOMALY":"298.1917","CLASSIFICATION_TYPE":"U","COUNTRY_CODE":"US","PERIOD":"95.592","CENTER_NAME":"EARTH","NORAD_CAT_ID":"46748","RCS_SIZE":"LARGE","OBJECT_NAME":"STARLINK-1910","MEAN_MOTION_DDOT":"0.0000000000000","BSTAR":"0.00007175700000","ARG_OF_PERICENTER":"61.9251","ELEMENT_SET_NO":"999","INCLINATION":"53.0563","TIME_SYSTEM":"UTC","MEAN_MOTION":"15.06397232","SEMIMAJOR_AXIS":"6925.357","REF_FRAME":"TEME","MEAN_MOTION_DOT":"0.00000787","EPHEMERIS_TYPE":"0","FILE":"3452173","RA_OF_ASC_NODE":"85.3364","GP_ID":"203879407","REV_AT_EPOCH":"8706","OBJECT_ID":"2020-074K","LAUNCH_DATE":"2020-10-24","MEAN_ELEMENT_THEORY":"SGP4","TLE_LINE2":"2 46748  53.0563  85.3364 0001771  61.9251 298.1917 15.06397232 87068","OBJECT_TYPE":"PAYLOAD","SITE":"AFETR","TLE_LINE1":"1 46748U 20074K   22138.85307091  .00000787  00000-0  71757-4 0  9994","EPOCH":"2022-05-18T20:28:25.326624","DECAY_DATE":null,"PERIAPSIS":"545.996","APOAPSIS":"548.449"},{"MEAN_ELEMENT_THEORY":"SGP4","TLE_LINE2":"2 46749  53.0563  86.4997 0001761  46.1486 313.9648 15.06401560 87020","OBJECT_TYPE":"PAYLOAD","EPOCH":"2022-05-18T14:16:52.135968","TLE_LINE1":"1 46749U 20074L   22138.59504787  .00000243  00000-0  35203-4 0  9990","SITE":"AFETR","APOAPSIS":"548.428","DECAY_DATE":null,"PERIAPSIS":"545.989","FILE":"3452176","EPHEMERIS_TYPE":"0","MEAN_MOTION_DOT":"0.00000243","REF_FRAME":"TEME","RA_OF_ASC_NODE":"86.4997","GP_ID":"203879163","REV_AT_EPOCH":"8702","LAUNCH_DATE":"2020-10-24","OBJECT_ID":"2020-074L","OBJECT_NAME":"STARLINK-1911","BSTAR":"0.00003520300000","MEAN_MOTION_DDOT":"0.0000000000000","ELEMENT_SET_NO":"999","ARG_OF_PERICENTER":"46.1486","INCLINATION":"53.0563","TIME_SYSTEM":"UTC","MEAN_MOTION":"15.06401560","SEMIMAJOR_AXIS":"6925.344","ECCENTRICITY":"0.00017610","MEAN_ANOMALY":"313.9648","CENTER_NAME":"EARTH","PERIOD":"95.592","CLASSIFICATION_TYPE":"U","COUNTRY_CODE":"US","NORAD_CAT_ID":"46749","RCS_SIZE":"LARGE"},{"CENTER_NAME":"EARTH","PERIOD":"95.592","COUNTRY_CODE":"US","CLASSIFICATION_TYPE":"U","MEAN_ANOMALY":"294.5504","ECCENTRICITY":"0.00017890","RCS_SIZE":"LARGE","NORAD_CAT_ID":"46751","BSTAR":"0.00004671800000","MEAN_MOTION_DDOT":"0.0000000000000","OBJECT_NAME":"STARLINK-1920","SEMIMAJOR_AXIS":"6925.360","MEAN_MOTION":"15.06396279","TIME_SYSTEM":"UTC","ELEMENT_SET_NO":"999","INCLINATION":"53.0558","ARG_OF_PERICENTER":"65.5671","EPHEMERIS_TYPE":"0","FILE":"3452356","MEAN_MOTION_DOT":"0.00000414","REF_FRAME":"TEME","LAUNCH_DATE":"2020-10-24","OBJECT_ID":"2020-074N","REV_AT_EPOCH":"8704","RA_OF_ASC_NODE":"85.3131","GP_ID":"203904030","OBJECT_TYPE":"PAYLOAD","TLE_LINE2":"2 46751  53.0558  85.3131 0001789  65.5671 294.5504 15.06396279 87043","MEAN_ELEMENT_THEORY":"SGP4","APOAPSIS":"548.464","DECAY_DATE":null,"PERIAPSIS":"545.986","TLE_LINE1":"1 46751U 20074N   22138.85675558  .00000414  00000-0  46718-4 0  9990","EPOCH":"2022-05-18T20:33:43.682112","SITE":"AFETR"},{"OBJECT_NAME":"STARLINK-1921","BSTAR":"0.00003151000000","MEAN_MOTION_DDOT":"0.0000000000000","TIME_SYSTEM":"UTC","ARG_OF_PERICENTER":"44.8316","ELEMENT_SET_NO":"999","INCLINATION":"53.0547","SEMIMAJOR_AXIS":"6925.339","MEAN_MOTION":"15.06403234","MEAN_ANOMALY":"315.2815","ECCENTRICITY":"0.00017670","PERIOD":"95.592","CENTER_NAME":"EARTH","COUNTRY_CODE":"US","CLASSIFICATION_TYPE":"U","RCS_SIZE":"LARGE","NORAD_CAT_ID":"46752","TLE_LINE2":"2 46752  53.0547  85.2488 0001767  44.8316 315.2815 15.06403234 87044","MEAN_ELEMENT_THEORY":"SGP4","OBJECT_TYPE":"PAYLOAD","TLE_LINE1":"1 46752U 20074P   22138.86780672  .00000188  00000-0  31510-4 0  9998","EPOCH":"2022-05-18T20:49:38.500608","SITE":"AFETR","APOAPSIS":"548.427","PERIAPSIS":"545.980","DECAY_DATE":null,"FILE":"3452356","EPHEMERIS_TYPE":"0","REF_FRAME":"TEME","MEAN_MOTION_DOT":"0.00000188","REV_AT_EPOCH":"8704","RA_OF_ASC_NODE":"85.2488","GP_ID":"203904280","LAUNCH_DATE":"2020-10-24","OBJECT_ID":"2020-074P"}];
